[{"OBJECT_NAME":"STARLINK-5341","OBJECT_ID":"2023-010U","EPOCH":"2026-03-09T22:30:44.851104","MEAN_MOTION":14.98322209,"ECCENTRICITY":0.00023398,"INCLINATION":70.0024,"RA_OF_ASC_NODE":3.9794,"ARG_OF_PERICENTER":273.4777,"MEAN_ANOMALY":86.6114,"EPHEMERIS_TYPE":0,"CLASSIFICATION_TYPE":"U","NORAD_CAT_ID":55287,"ELEMENT_SET_NO":999,"REV_AT_EPOCH":17379,"BSTAR":0.00024384585,"MEAN_MOTION_DOT":2.817e-5,"MEAN_MOTION_DDOT":0},{"OBJECT_NAME":"LEMUR-2-LUCILLE-ROSE","OBJECT_ID":"2025-135BV","EPOCH":"2026-03-09T20:33:39.744864","MEAN_MOTION":14.98437227,"ECCENTRICITY":0.00099823,"INCLINATION":97.7607,"RA_OF_ASC_NODE":185.354,"ARG_OF_PERICENTER":240.475,"MEAN_ANOMALY":119.5478,"EPHEMERIS_TYPE":0,"CLASSIFICATION_TYPE":"U","NORAD_CAT_ID":65403,"ELEMENT_SET_NO":999,"REV_AT_EPOCH":3375,"BSTAR":0.0012144011,"MEAN_MOTION_DOT":0.00014478,"MEAN_MOTION_DDOT":0}]
